SIRIUS-1                
1 26390U 00035A   09120.28526154 -.00000045  00000-0  10000-3 0  4723
2 26390  61.5861 255.4253 2659743 269.9423  59.8440  1.00278448 32364
SIRIUS-2                
1 26483U 00051A   09120.94907674  .00000142  00000-0  10000-3 0  1811
2 26483  63.7147 135.4151 2678882 269.5976  60.0337  1.00279126 31706
SIRIUS-3                
1 26626U 00077A   09120.61958361  .00000000  00000-0  10000-3 0  4121
2 26626  63.9645  15.5701 2662677 270.1326  59.7986  1.00281797 30836
XM-2 (ROCK)             
1 26724U 01012A   09121.34893575 -.00000216  00000-0  10000-3 0  5868
2 26724   0.0161 275.7519 0000208   6.1721 337.8557  1.00270036 29822
XM-1 (ROLL)             
1 26761U 01018A   09121.34893410 -.00000216  00000-0  10000-3 0  3647
2 26761   0.0875 271.7626 0000212  84.8219 263.2561  1.00270070 29296
XM-3 (RHYTHM)           
1 28626U 05008A   09120.43447025 -.00000215  00000-0  10000-3 0  5830
2 28626   0.0150 272.1335 0000337   1.9477  15.7328  1.00270889 15328
XM-4 (BLUES)            
1 29520U 06049A   09121.54638625 -.00000037  00000-0  10000-3 0  3617
2 29520   0.0107 333.6907 0000457 279.4922  48.1023  1.00272054  9277
